[{"OBJECT_NAME":"LINGQIAO VIDEO B","OBJECT_ID":"2015-057C","EPOCH":"2026-03-09T23:35:26.721888","MEAN_MOTION":14.77336016,"ECCENTRICITY":0.00156503,"INCLINATION":97.6585,"RA_OF_ASC_NODE":69.8903,"ARG_OF_PERICENTER":229.2428,"MEAN_ANOMALY":130.7425,"EPHEMERIS_TYPE":0,"CLASSIFICATION_TYPE":"U","NORAD_CAT_ID":40960,"ELEMENT_SET_NO":999,"REV_AT_EPOCH":56080,"BSTAR":0.00021138214,"MEAN_MOTION_DOT":1.456e-5,"MEAN_MOTION_DDOT":0},{"OBJECT_NAME":"SL-8 DEB","OBJECT_ID":"1988-029C","EPOCH":"2026-03-09T23:59:50.703360","MEAN_MOTION":14.75609451,"ECCENTRICITY":0.00084558,"INCLINATION":74.0163,"RA_OF_ASC_NODE":271.2141,"ARG_OF_PERICENTER":343.8578,"MEAN_ANOMALY":168.352,"EPHEMERIS_TYPE":0,"CLASSIFICATION_TYPE":"U","NORAD_CAT_ID":19048,"ELEMENT_SET_NO":999,"REV_AT_EPOCH":897,"BSTAR":0.00059777519,"MEAN_MOTION_DOT":4.05e-5,"MEAN_MOTION_DDOT":0}]
